[{"OBJECT_NAME":"FLOCK 4Q-7","OBJECT_ID":"2023-174BQ","EPOCH":"2026-03-14T04:54:33.464736","MEAN_MOTION":15.49579304,"ECCENTRICITY":0.00074607,"INCLINATION":97.3931,"RA_OF_ASC_NODE":161.8971,"ARG_OF_PERICENTER":124.856,"MEAN_ANOMALY":235.3394,"EPHEMERIS_TYPE":0,"CLASSIFICATION_TYPE":"U","NORAD_CAT_ID":58318,"ELEMENT_SET_NO":999,"REV_AT_EPOCH":13101,"BSTAR":0.00073971637,"MEAN_MOTION_DOT":0.00040946,"MEAN_MOTION_DDOT":0},{"OBJECT_NAME":"FLOCK 4Q-2","OBJECT_ID":"2023-174BS","EPOCH":"2026-03-14T14:21:16.766208","MEAN_MOTION":15.45306203,"ECCENTRICITY":0.0007934,"INCLINATION":97.3857,"RA_OF_ASC_NODE":160.0913,"ARG_OF_PERICENTER":124.3643,"MEAN_ANOMALY":235.8357,"EPHEMERIS_TYPE":0,"CLASSIFICATION_TYPE":"U","NORAD_CAT_ID":58320,"ELEMENT_SET_NO":999,"REV_AT_EPOCH":13097,"BSTAR":0.00069864909,"MEAN_MOTION_DOT":0.00033327,"MEAN_MOTION_DDOT":0},{"OBJECT_NAME":"FLOCK 4Q-9","OBJECT_ID":"2023-174BU","EPOCH":"2026-03-14T03:57:09.197856","MEAN_MOTION":15.44957521,"ECCENTRICITY":0.00080794,"INCLINATION":97.3895,"RA_OF_ASC_NODE":159.695,"ARG_OF_PERICENTER":126.8609,"MEAN_ANOMALY":233.3382,"EPHEMERIS_TYPE":0,"CLASSIFICATION_TYPE":"U","NORAD_CAT_ID":58322,"ELEMENT_SET_NO":999,"REV_AT_EPOCH":13089,"BSTAR":0.00066339066,"MEAN_MOTION_DOT":0.0003126,"MEAN_MOTION_DDOT":0},{"OBJECT_NAME":"FLOCK 4Q-4","OBJECT_ID":"2023-174BZ","EPOCH":"2026-03-14T05:34:35.278464","MEAN_MOTION":15.44513901,"ECCENTRICITY":0.00077825,"INCLINATION":97.3852,"RA_OF_ASC_NODE":159.1306,"ARG_OF_PERICENTER":143.7033,"MEAN_ANOMALY":216.4745,"EPHEMERIS_TYPE":0,"CLASSIFICATION_TYPE":"U","NORAD_CAT_ID":58327,"ELEMENT_SET_NO":999,"REV_AT_EPOCH":13088,"BSTAR":0.00063005892,"MEAN_MOTION_DOT":0.00029231,"MEAN_MOTION_DDOT":0},{"OBJECT_NAME":"FLOCK 4Q-13","OBJECT_ID":"2023-174CA","EPOCH":"2026-03-14T04:39:21.228480","MEAN_MOTION":15.4726076,"ECCENTRICITY":0.00077224,"INCLINATION":97.401,"RA_OF_ASC_NODE":161.5401,"ARG_OF_PERICENTER":136.3387,"MEAN_ANOMALY":223.8475,"EPHEMERIS_TYPE":0,"CLASSIFICATION_TYPE":"U","NORAD_CAT_ID":58328,"ELEMENT_SET_NO":999,"REV_AT_EPOCH":13096,"BSTAR":0.00065308427,"MEAN_MOTION_DOT":0.00033306,"MEAN_MOTION_DDOT":0},{"OBJECT_NAME":"FLOCK 4Q-21","OBJECT_ID":"2023-174CB","EPOCH":"2026-03-14T12:32:13.848000","MEAN_MOTION":15.57898005,"ECCENTRICITY":0.00057032,"INCLINATION":97.3924,"RA_OF_ASC_NODE":165.0308,"ARG_OF_PERICENTER":141.3535,"MEAN_ANOMALY":218.813,"EPHEMERIS_TYPE":0,"CLASSIFICATION_TYPE":"U","NORAD_CAT_ID":58329,"ELEMENT_SET_NO":999,"REV_AT_EPOCH":13124,"BSTAR":0.00079112632,"MEAN_MOTION_DOT":0.00059305,"MEAN_MOTION_DDOT":0},{"OBJECT_NAME":"FLOCK 4BE-18","OBJECT_ID":"2024-149N","EPOCH":"2026-03-14T11:46:43.843008","MEAN_MOTION":15.38515569,"ECCENTRICITY":0.0003601,"INCLINATION":97.3772,"RA_OF_ASC_NODE":156.4482,"ARG_OF_PERICENTER":219.4101,"MEAN_ANOMALY":140.6882,"EPHEMERIS_TYPE":0,"CLASSIFICATION_TYPE":"U","NORAD_CAT_ID":60480,"ELEMENT_SET_NO":999,"REV_AT_EPOCH":8773,"BSTAR":0.00060381455,"MEAN_MOTION_DOT":0.00022913,"MEAN_MOTION_DDOT":0},{"OBJECT_NAME":"FLOCK 4BE-7","OBJECT_ID":"2024-149P","EPOCH":"2026-03-14T04:27:43.480224","MEAN_MOTION":15.3645279,"ECCENTRICITY":0.00025738,"INCLINATION":97.3798,"RA_OF_ASC_NODE":155.7162,"ARG_OF_PERICENTER":215.231,"MEAN_ANOMALY":144.8765,"EPHEMERIS_TYPE":0,"CLASSIFICATION_TYPE":"U","NORAD_CAT_ID":60481,"ELEMENT_SET_NO":999,"REV_AT_EPOCH":8764,"BSTAR":0.00055838064,"MEAN_MOTION_DOT":0.00019806,"MEAN_MOTION_DDOT":0},{"OBJECT_NAME":"FLOCK 4BE-26","OBJECT_ID":"2024-149S","EPOCH":"2026-03-14T11:37:46.541280","MEAN_MOTION":15.45347256,"ECCENTRICITY":0.00063312,"INCLINATION":97.375,"RA_OF_ASC_NODE":156.4109,"ARG_OF_PERICENTER":228.431,"MEAN_ANOMALY":131.6396,"EPHEMERIS_TYPE":0,"CLASSIFICATION_TYPE":"U","NORAD_CAT_ID":60484,"ELEMENT_SET_NO":999,"REV_AT_EPOCH":8773,"BSTAR":0.002316878,"MEAN_MOTION_DOT":0.00111949,"MEAN_MOTION_DDOT":0},{"OBJECT_NAME":"FLOCK 4BE-36","OBJECT_ID":"2024-149U","EPOCH":"2026-03-14T10:51:02.722176","MEAN_MOTION":15.39399074,"ECCENTRICITY":0.00031269,"INCLINATION":97.3776,"RA_OF_ASC_NODE":156.9625,"ARG_OF_PERICENTER":231.1259,"MEAN_ANOMALY":128.9708,"EPHEMERIS_TYPE":0,"CLASSIFICATION_TYPE":"U","NORAD_CAT_ID":60486,"ELEMENT_SET_NO":999,"REV_AT_EPOCH":8776,"BSTAR":0.00064446356,"MEAN_MOTION_DOT":0.00025183,"MEAN_MOTION_DDOT":0},{"OBJECT_NAME":"FLOCK 4BE-25","OBJECT_ID":"2024-149V","EPOCH":"2026-03-14T11:04:06.136032","MEAN_MOTION":15.36178134,"ECCENTRICITY":0.00019749,"INCLINATION":97.3835,"RA_OF_ASC_NODE":156.1422,"ARG_OF_PERICENTER":199.5151,"MEAN_ANOMALY":160.6018,"EPHEMERIS_TYPE":0,"CLASSIFICATION_TYPE":"U","NORAD_CAT_ID":60487,"ELEMENT_SET_NO":999,"REV_AT_EPOCH":8768,"BSTAR":0.00051638188,"MEAN_MOTION_DOT":0.00018145,"MEAN_MOTION_DDOT":0},{"OBJECT_NAME":"FLOCK 4BE-31","OBJECT_ID":"2024-149W","EPOCH":"2026-03-14T11:36:18.735552","MEAN_MOTION":15.40217175,"ECCENTRICITY":0.0002218,"INCLINATION":97.3833,"RA_OF_ASC_NODE":157.6259,"ARG_OF_PERICENTER":219.4059,"MEAN_ANOMALY":140.7027,"EPHEMERIS_TYPE":0,"CLASSIFICATION_TYPE":"U","NORAD_CAT_ID":60488,"ELEMENT_SET_NO":999,"REV_AT_EPOCH":8778,"BSTAR":0.00065564488,"MEAN_MOTION_DOT":0.0002632,"MEAN_MOTION_DDOT":0},{"OBJECT_NAME":"FLOCK 4BE-20","OBJECT_ID":"2024-149X","EPOCH":"2026-03-14T15:17:34.368576","MEAN_MOTION":15.35443604,"ECCENTRICITY":0.00031563,"INCLINATION":97.3742,"RA_OF_ASC_NODE":155.4356,"ARG_OF_PERICENTER":221.2227,"MEAN_ANOMALY":138.8779,"EPHEMERIS_TYPE":0,"CLASSIFICATION_TYPE":"U","NORAD_CAT_ID":60489,"ELEMENT_SET_NO":999,"REV_AT_EPOCH":8769,"BSTAR":0.00057997,"MEAN_MOTION_DOT":0.00019922,"MEAN_MOTION_DDOT":0},{"OBJECT_NAME":"FLOCK 4BE-23","OBJECT_ID":"2024-149Y","EPOCH":"2026-03-14T03:34:13.391904","MEAN_MOTION":15.35066337,"ECCENTRICITY":0.00025568,"INCLINATION":97.382,"RA_OF_ASC_NODE":155.2711,"ARG_OF_PERICENTER":231.7215,"MEAN_ANOMALY":128.3798,"EPHEMERIS_TYPE":0,"CLASSIFICATION_TYPE":"U","NORAD_CAT_ID":60490,"ELEMENT_SET_NO":999,"REV_AT_EPOCH":8760,"BSTAR":0.00052453586,"MEAN_MOTION_DOT":0.00017789,"MEAN_MOTION_DDOT":0},{"OBJECT_NAME":"FLOCK 4BE-15","OBJECT_ID":"2024-149Z","EPOCH":"2026-03-14T04:35:12.350688","MEAN_MOTION":15.41206736,"ECCENTRICITY":0.00037068,"INCLINATION":97.3753,"RA_OF_ASC_NODE":156.4033,"ARG_OF_PERICENTER":285.7849,"MEAN_ANOMALY":74.2989,"EPHEMERIS_TYPE":0,"CLASSIFICATION_TYPE":"U","NORAD_CAT_ID":60491,"ELEMENT_SET_NO":999,"REV_AT_EPOCH":8771,"BSTAR":0.0023399635,"MEAN_MOTION_DOT":0.00098195,"MEAN_MOTION_DDOT":0},{"OBJECT_NAME":"FLOCK 4BE-17","OBJECT_ID":"2024-149AA","EPOCH":"2026-03-14T04:30:10.132128","MEAN_MOTION":15.36828443,"ECCENTRICITY":0.00027595,"INCLINATION":97.3815,"RA_OF_ASC_NODE":156.0018,"ARG_OF_PERICENTER":213.8054,"MEAN_ANOMALY":146.3014,"EPHEMERIS_TYPE":0,"CLASSIFICATION_TYPE":"U","NORAD_CAT_ID":60492,"ELEMENT_SET_NO":999,"REV_AT_EPOCH":8765,"BSTAR":0.00057359146,"MEAN_MOTION_DOT":0.00020597,"MEAN_MOTION_DDOT":0}]
