FLOCK 4Q-7              
1 58318U 23174BQ  26073.20455399  .00040946  00000+0  73972-3 0  9990
2 58318  97.3931 161.8971 0007460 124.8560 235.3394 15.49579304131017
FLOCK 4Q-2              
1 58320U 23174BS  26073.59811072  .00033327  00000+0  69865-3 0  9990
2 58320  97.3857 160.0913 0007934 124.3643 235.8357 15.45306203130977
FLOCK 4Q-9              
1 58322U 23174BU  26073.16468979  .00031260  00000+0  66339-3 0  9996
2 58322  97.3895 159.6950 0008079 126.8609 233.3382 15.44957521130892
FLOCK 4Q-4              
1 58327U 23174BZ  26073.23235276  .00029231  00000+0  63006-3 0  9994
2 58327  97.3852 159.1306 0007782 143.7033 216.4745 15.44513901130883
FLOCK 4Q-13             
1 58328U 23174CA  26073.19399570  .00033306  00000+0  65308-3 0  9993
2 58328  97.4010 161.5401 0007722 136.3387 223.8475 15.47260760130964
FLOCK 4Q-21             
1 58329U 23174CB  26073.52238250  .00059305  00000+0  79113-3 0  9994
2 58329  97.3924 165.0308 0005703 141.3535 218.8130 15.57898005131245
FLOCK 4BE-18            
1 60480U 24149N   26073.49078522  .00022913  00000+0  60381-3 0  9990
2 60480  97.3772 156.4482 0003601 219.4101 140.6882 15.38515569 87735
FLOCK 4BE-7             
1 60481U 24149P   26073.18591991  .00019806  00000+0  55838-3 0  9995
2 60481  97.3798 155.7162 0002573 215.2310 144.8765 15.36452790 87644
FLOCK 4BE-26            
1 60484U 24149S   26073.48456645  .00111949  00000+0  23169-2 0  9999
2 60484  97.3750 156.4109 0006331 228.4310 131.6396 15.45347256 87730
FLOCK 4BE-36            
1 60486U 24149U   26073.45211484  .00025183  00000+0  64446-3 0  9996
2 60486  97.3776 156.9625 0003126 231.1259 128.9708 15.39399074 87767
FLOCK 4BE-25            
1 60487U 24149V   26073.46118213  .00018145  00000+0  51638-3 0  9993
2 60487  97.3835 156.1422 0001974 199.5151 160.6018 15.36178134 87685
FLOCK 4BE-31            
1 60488U 24149W   26073.48355018  .00026320  00000+0  65564-3 0  9999
2 60488  97.3833 157.6259 0002218 219.4059 140.7027 15.40217175 87783
FLOCK 4BE-20            
1 60489U 24149X   26073.63720334  .00019922  00000+0  57997-3 0  9995
2 60489  97.3742 155.4356 0003156 221.2227 138.8779 15.35443604 87691
FLOCK 4BE-23            
1 60490U 24149Y   26073.14876611  .00017789  00000+0  52454-3 0  9995
2 60490  97.3820 155.2711 0002556 231.7215 128.3798 15.35066337 87609
FLOCK 4BE-15            
1 60491U 24149Z   26073.19111517  .00098195  00000+0  23400-2 0  9996
2 60491  97.3753 156.4033 0003706 285.7849  74.2989 15.41206736 87714
FLOCK 4BE-17            
1 60492U 24149AA  26073.18761727  .00020597  00000+0  57359-3 0  9992
2 60492  97.3815 156.0018 0002759 213.8054 146.3014 15.36828443 87652
